{
  "type": "FeatureCollection",
  "features": [
    {
      "type": "Feature",
      "properties": {
        "norad_id": 66463,
        "name": "STARLINK-35463",
        "group": "last-30-days",
        "lat": 37.92813875272619,
        "lon": -134.88117386648312,
        "alt_km": 410.1684648974906,
        "timestamp": "2025-12-07T11:27:48.739781+00:00",
        "meta_object_name": "STARLINK-35463",
        "meta_object_id": "2025-262H",
        "meta_epoch": "2025-12-07T00:00:02.000160",
        "meta_mean_motion": 15.50629601,
        "meta_eccentricity": 0.0001574,
        "meta_inclination": 43.0009,
        "meta_ra_of_asc_node": 104.6577,
        "meta_arg_of_pericenter": 266.6288,
        "meta_mean_anomaly": 59.6567,
        "meta_ephemeris_type": 0,
        "meta_classification_type": "U",
        "meta_norad_cat_id": 66463,
        "meta_element_set_no": 999,
        "meta_rev_at_epoch": 471,
        "meta_bstar": -0.0021705605,
        "meta_mean_motion_dot": -0.0012588,
        "meta_mean_motion_ddot": 0,
        "tle_line1": "1 66463U 25262H   25341.00002315 -.00125880  00000+0 -21706-2 0  9991",
        "tle_line2": "2 66463  43.0009 104.6577 0001574 266.6288  59.6567 15.50629601  4713"
      },
      "geometry": {
        "type": "Point",
        "coordinates": [
          -134.88117386648312,
          37.92813875272619
        ]
      }
    },
    {
      "type": "Feature",
      "properties": {
        "norad_id": 66464,
        "name": "STARLINK-35435",
        "group": "last-30-days",
        "lat": 38.623537564715924,
        "lon": -137.15339162997458,
        "alt_km": 409.99493158974656,
        "timestamp": "2025-12-07T11:27:48.739791+00:00",
        "meta_object_name": "STARLINK-35435",
        "meta_object_id": "2025-262J",
        "meta_epoch": "2025-12-07T00:00:02.000160",
        "meta_mean_motion": 15.50635337,
        "meta_eccentricity": 0.0001452,
        "meta_inclination": 43.0009,
        "meta_ra_of_asc_node": 104.6633,
        "meta_arg_of_pericenter": 265.0231,
        "meta_mean_anomaly": 59.343,
        "meta_ephemeris_type": 0,
        "meta_classification_type": "U",
        "meta_norad_cat_id": 66464,
        "meta_element_set_no": 999,
        "meta_rev_at_epoch": 471,
        "meta_bstar": -0.0023206791,
        "meta_mean_motion_dot": -0.00134443,
        "meta_mean_motion_ddot": 0,
        "tle_line1": "1 66464U 25262J   25341.00002315 -.00134443  00000+0 -23207-2 0  9995",
        "tle_line2": "2 66464  43.0009 104.6633 0001452 265.0231  59.3430 15.50635337  4712"
      },
      "geometry": {
        "type": "Point",
        "coordinates": [
          -137.15339162997458,
          38.623537564715924
        ]
      }
    },
    {
      "type": "Feature",
      "properties": {
        "norad_id": 66465,
        "name": "STARLINK-35448",
        "group": "last-30-days",
        "lat": 36.40948126775211,
        "lon": -130.46548829666844,
        "alt_km": 410.429198759658,
        "timestamp": "2025-12-07T11:27:48.739801+00:00",
        "meta_object_name": "STARLINK-35448",
        "meta_object_id": "2025-262K",
        "meta_epoch": "2025-12-07T00:00:02.000160",
        "meta_mean_motion": 15.5064191,
        "meta_eccentricity": 0.00016141,
        "meta_inclination": 43.0009,
        "meta_ra_of_asc_node": 104.6485,
        "meta_arg_of_pericenter": 266.8544,
        "meta_mean_anomaly": 63.2633,
        "meta_ephemeris_type": 0,
        "meta_classification_type": "U",
        "meta_norad_cat_id": 66465,
        "meta_element_set_no": 999,
        "meta_rev_at_epoch": 471,
        "meta_bstar": -0.0025521679,
        "meta_mean_motion_dot": -0.00147611,
        "meta_mean_motion_ddot": 0,
        "tle_line1": "1 66465U 25262K   25341.00002315 -.00147611  00000+0 -25522-2 0  9999",
        "tle_line2": "2 66465  43.0009 104.6485 0001614 266.8544  63.2633 15.50641910  4717"
      },
      "geometry": {
        "type": "Point",
        "coordinates": [
          -130.46548829666844,
          36.40948126775211
        ]
      }
    },
    {
      "type": "Feature",
      "properties": {
        "norad_id": 66466,
        "name": "STARLINK-35388",
        "group": "last-30-days",
        "lat": 35.5902588385091,
        "lon": -128.32599137337087,
        "alt_km": 410.4842416357087,
        "timestamp": "2025-12-07T11:27:48.739811+00:00",
        "meta_object_name": "STARLINK-35388",
        "meta_object_id": "2025-262L",
        "meta_epoch": "2025-12-07T00:00:02.000160",
        "meta_mean_motion": 15.50643023,
        "meta_eccentricity": 0.00015256,
        "meta_inclination": 43.0008,
        "meta_ra_of_asc_node": 104.6423,
        "meta_arg_of_pericenter": 266.1987,
        "meta_mean_anomaly": 65.8357,
        "meta_ephemeris_type": 0,
        "meta_classification_type": "U",
        "meta_norad_cat_id": 66466,
        "meta_element_set_no": 999,
        "meta_rev_at_epoch": 471,
        "meta_bstar": -0.0025809296,
        "meta_mean_motion_dot": -0.00149244,
        "meta_mean_motion_ddot": 0,
        "tle_line1": "1 66466U 25262L   25341.00002315 -.00149244  00000+0 -25809-2 0  9992",
        "tle_line2": "2 66466  43.0008 104.6423 0001525 266.1987  65.8357 15.50643023  4712"
      },
      "geometry": {
        "type": "Point",
        "coordinates": [
          -128.32599137337087,
          35.5902588385091
        ]
      }
    },
    {
      "type": "Feature",
      "properties": {
        "norad_id": 66467,
        "name": "STARLINK-35682",
        "group": "last-30-days",
        "lat": 37.19070204965218,
        "lon": -132.6544483906024,
        "alt_km": 410.3574353012036,
        "timestamp": "2025-12-07T11:27:48.739822+00:00",
        "meta_object_name": "STARLINK-35682",
        "meta_object_id": "2025-262M",
        "meta_epoch": "2025-12-07T00:00:02.000160",
        "meta_mean_motion": 15.5065376,
        "meta_eccentricity": 0.0001658,
        "meta_inclination": 43.0009,
        "meta_ra_of_asc_node": 104.6536,
        "meta_arg_of_pericenter": 265.0433,
        "meta_mean_anomaly": 63.1512,
        "meta_ephemeris_type": 0,
        "meta_classification_type": "U",
        "meta_norad_cat_id": 66467,
        "meta_element_set_no": 999,
        "meta_rev_at_epoch": 471,
        "meta_bstar": -0.0029085721,
        "meta_mean_motion_dot": -0.00167819,
        "meta_mean_motion_ddot": 0,
        "tle_line1": "1 66467U 25262M   25341.00002315 -.00167819  00000+0 -29086-2 0  9992",
        "tle_line2": "2 66467  43.0009 104.6536 0001658 265.0433  63.1512 15.50653760  4713"
      },
      "geometry": {
        "type": "Point",
        "coordinates": [
          -132.6544483906024,
          37.19070204965218
        ]
      }
    },
    {
      "type": "Feature",
      "properties": {
        "norad_id": 66468,
        "name": "STARLINK-35331",
        "group": "last-30-days",
        "lat": 34.73520030794805,
        "lon": -126.23161834569841,
        "alt_km": 410.6163985431076,
        "timestamp": "2025-12-07T11:27:48.739834+00:00",
        "meta_object_name": "STARLINK-35331",
        "meta_object_id": "2025-262N",
        "meta_epoch": "2025-12-07T00:00:02.000160",
        "meta_mean_motion": 15.50641175,
        "meta_eccentricity": 0.00016019,
        "meta_inclination": 43.0009,
        "meta_ra_of_asc_node": 104.6383,
        "meta_arg_of_pericenter": 263.7106,
        "meta_mean_anomaly": 70.2413,
        "meta_ephemeris_type": 0,
        "meta_classification_type": "U",
        "meta_norad_cat_id": 66468,
        "meta_element_set_no": 999,
        "meta_rev_at_epoch": 471,
        "meta_bstar": -0.0025459221,
        "meta_mean_motion_dot": -0.00147253,
        "meta_mean_motion_ddot": 0,
        "tle_line1": "1 66468U 25262N   25341.00002315 -.00147253  00000+0 -25459-2 0  9993",
        "tle_line2": "2 66468  43.0009 104.6383 0001601 263.7106  70.2413 15.50641175  4710"
      },
      "geometry": {
        "type": "Point",
        "coordinates": [
          -126.23161834569841,
          34.73520030794805
        ]
      }
    },
    {
      "type": "Feature",
      "properties": {
        "norad_id": 66469,
        "name": "STARLINK-35451",
        "group": "last-30-days",
        "lat": 31.96092368417246,
        "lon": -120.20201386162226,
        "alt_km": 410.8957642756677,
        "timestamp": "2025-12-07T11:27:48.739844+00:00",
        "meta_object_name": "STARLINK-35451",
        "meta_object_id": "2025-262P",
        "meta_epoch": "2025-12-07T00:00:02.000160",
        "meta_mean_motion": 15.50615348,
        "meta_eccentricity": 0.00014084,
        "meta_inclination": 43.0008,
        "meta_ra_of_asc_node": 104.6234,
        "meta_arg_of_pericenter": 269.2363,
        "meta_mean_anomaly": 70.4727,
        "meta_ephemeris_type": 0,
        "meta_classification_type": "U",
        "meta_norad_cat_id": 66469,
        "meta_element_set_no": 999,
        "meta_rev_at_epoch": 471,
        "meta_bstar": -0.0017398773,
        "meta_mean_motion_dot": -0.00101233,
        "meta_mean_motion_ddot": 0,
        "tle_line1": "1 66469U 25262P   25341.00002315 -.00101233  00000+0 -17399-2 0  9996",
        "tle_line2": "2 66469  43.0008 104.6234 0001408 269.2363  70.4727 15.50615348  4719"
      },
      "geometry": {
        "type": "Point",
        "coordinates": [
          -120.20201386162226,
          31.96092368417246
        ]
      }
    }
  ]
}